{
  "type": "FeatureCollection",
  "features": [
    {
      "type": "Feature",
      "id": "geojson-1",
      "geometry": { "type": "Point", "coordinates": [7.7986, 46.6960] },
      "properties": {
        "name": "Beatenberg",
        "place": "Interlaken",
        "countryCode": "ch",
        "takeoff_altitude": "1200",
        "takeoff_description": "Grassy north-west facing launch above Lake Thun.",
        "flight_rules": "Respect the local club rules.",
        "going_there": "Bus from Interlaken to Beatenberg.",
        "comments": "Popular thermalling site.",
        "weather": "Best in stable north-west flow.",
        "last_edit": "2025-05-01",
        "pge_site_id": "1001",
        "pge_link": "http://www.paragliding.earth/index.php?site=1001",
        "N": "3",
        "NW": "2",
        "W": "1",
        "paragliding": "1",
        "hanggliding": "0",
        "thermals": "1",
        "soaring": "1",
        "xc": "1",
        "landing": {
          "landing_name": "Interlaken field",
          "landing_lat": "46.6850",
          "landing_lng": "7.8500"
        }
      }
    },
    {
      "type": "Feature",
      "id": "geojson-2",
      "geometry": { "type": "Point", "coordinates": [7.7500, 46.7100] },
      "properties": {
        "name": "Niederhorn",
        "countryCode": "ch",
        "takeoff_altitude": "1950",
        "pge_site_id": "1002",
        "N": "3",
        "NE": "2",
        "paragliding": "1"
      }
    },
    {
      "type": "Feature",
      "id": "geojson-3",
      "geometry": { "type": "Point", "coordinates": [8.0100, 46.9500] },
      "properties": {
        "name": "Meiringen Hasliberg",
        "countryCode": "ch",
        "takeoff_altitude": "1550",
        "pge_link": "https://www.paragliding.earth/index.php?site=3003",
        "paragliding": "1",
        "S": "2",
        "SW": "1"
      }
    },
    {
      "type": "Feature",
      "id": "geojson-4",
      "geometry": { "type": "Point", "coordinates": [13.2400, 52.4900] },
      "properties": {
        "name": "Teufelsberg",
        "place": "Berlin",
        "countryCode": "de",
        "takeoff_altitude": "120",
        "pge_site_id": "2001",
        "W": "2",
        "soaring": "1"
      }
    },
    {
      "type": "Feature",
      "id": "geojson-8",
      "geometry": { "type": "Point", "coordinates": [11.5217, 47.6631] },
      "properties": {
        "name": "Brauneck Nordhang",
        "place": "Lenggries",
        "countryCode": "de",
        "takeoff_altitude": "1520",
        "takeoff_description": "North-facing launch on the Brauneck ridge.",
        "pge_site_id": "5001",
        "pge_link": "https://www.paragliding.earth/index.php?site=5001",
        "N": "3",
        "NW": "2",
        "paragliding": "1",
        "thermals": "1",
        "landing": {
          "landing_name": "Lenggries valley",
          "landing_lat": "47.6800",
          "landing_lng": "11.5700"
        }
      }
    },
    {
      "type": "Feature",
      "id": "geojson-9",
      "geometry": { "type": "Point", "coordinates": [11.5500, 47.6800] },
      "properties": {
        "name": "Lenggries Sud",
        "countryCode": "de",
        "takeoff_altitude": "1300",
        "pge_site_id": "5002",
        "S": "2",
        "paragliding": "1"
      }
    },
    {
      "type": "Feature",
      "id": "geojson-5-duplicate",
      "geometry": { "type": "Point", "coordinates": [7.7990, 46.6965] },
      "properties": {
        "name": "Beatenberg (duplicate record)",
        "countryCode": "ch",
        "takeoff_altitude": "1200",
        "pge_site_id": "1001",
        "paragliding": "1"
      }
    },
    {
      "type": "Feature",
      "id": "geojson-6-invalid",
      "geometry": { "type": "Point", "coordinates": [200.0, 100.0] },
      "properties": {
        "name": "Out of range",
        "pge_site_id": "9999",
        "paragliding": "1"
      }
    },
    {
      "type": "Feature",
      "id": "geojson-7-no-geometry",
      "geometry": null,
      "properties": {
        "name": "Missing geometry",
        "pge_site_id": "9998"
      }
    }
  ]
}
